[{"OBJECT_NAME":"LAPAN-A3","OBJECT_ID":"2016-040E","EPOCH":"2026-03-09T23:01:57.724896","MEAN_MOTION":15.3238951,"ECCENTRICITY":0.00109839,"INCLINATION":97.1488,"RA_OF_ASC_NODE":68.4254,"ARG_OF_PERICENTER":22.062,"MEAN_ANOMALY":338.1093,"EPHEMERIS_TYPE":0,"CLASSIFICATION_TYPE":"U","NORAD_CAT_ID":41603,"ELEMENT_SET_NO":999,"REV_AT_EPOCH":53961,"BSTAR":0.00017567445,"MEAN_MOTION_DOT":5.428e-5,"MEAN_MOTION_DDOT":0},{"OBJECT_NAME":"STARLINK-30703","OBJECT_ID":"2023-148V","EPOCH":"2026-03-09T04:08:09.879648","MEAN_MOTION":15.30189336,"ECCENTRICITY":9.894e-5,"INCLINATION":53.163,"RA_OF_ASC_NODE":16.5742,"ARG_OF_PERICENTER":92.0491,"MEAN_ANOMALY":268.0623,"EPHEMERIS_TYPE":0,"CLASSIFICATION_TYPE":"U","NORAD_CAT_ID":57954,"ELEMENT_SET_NO":999,"REV_AT_EPOCH":13848,"BSTAR":7.549971e-6,"MEAN_MOTION_DOT":-1.35e-6,"MEAN_MOTION_DDOT":0}]
